[
    {
        "CCSDS_OMM_VERS": "3.0",
        "COMMENT": "GENERATED VIA SPACE-TRACK.ORG API",
        "CREATION_DATE": "2025-03-02T22:56:18",
        "ORIGINATOR": "18 SPCS",
        "OBJECT_NAME": "BEIDOU 3M9",
        "OBJECT_ID": "2018-062A",
        "CENTER_NAME": "EARTH",
        "REF_FRAME": "TEME",
        "TIME_SYSTEM": "UTC",
        "MEAN_ELEMENT_THEORY": "SGP4",
        "EPOCH": "2025-03-02T02:56:51.501984",
        "MEAN_MOTION": "1.86228382",
        "ECCENTRICITY": "0.00016290",
        "INCLINATION": "54.1094",
        "RA_OF_ASC_NODE": "198.3540",
        "ARG_OF_PERICENTER": "306.5389",
        "MEAN_ANOMALY": "53.4001",
        "EPHEMERIS_TYPE": "0",
        "CLASSIFICATION_TYPE": "U",
        "NORAD_CAT_ID": "43581",
        "ELEMENT_SET_NO": "999",
        "REV_AT_EPOCH": "4484",
        "BSTAR": "0.00000000000000",
        "MEAN_MOTION_DOT": "0.00000042",
        "MEAN_MOTION_DDOT": "0.0000000000000",
        "SEMIMAJOR_AXIS": "27906.450",
        "PERIOD": "773.244",
        "APOAPSIS": "21532.861",
        "PERIAPSIS": "21523.769",
        "OBJECT_TYPE": "PAYLOAD",
        "RCS_SIZE": "LARGE",
        "COUNTRY_CODE": "PRC",
        "LAUNCH_DATE": "2018-07-29",
        "SITE": "XSC",
        "DECAY_DATE": null,
        "FILE": "4657356",
        "GP_ID": "282106452",
        "TLE_LINE0": "0 BEIDOU 3M9",
        "TLE_LINE1": "1 43581U 18062A   25061.12281831  .00000042  00000-0  00000+0 0  9993",
        "TLE_LINE2": "2 43581  54.1094 198.3540 0001629 306.5389  53.4001  1.86228382 44841"
    }
]